{"fetched_at":"2026-03-29T16:36:15Z","count":15609,"tles":[{"name":"STARLINK-32758","line1":"1 62744U 25014K   26087.62244272  .00024872  00000+0  90965-3 0  9991","line2":"2 62744  43.0060  50.8679 0001929 280.8190  79.2445 15.27604149 66116","category":"Starlink"}]}